     2.10           G: GLONASS NAV DATA                     RINEX VERSION / TYPE
teqc  2015Jun23                         20211231 01:25:45UTCPGM / RUN BY / DATE
Linux 2.4.21-27.ELsmp|Opteron|gcc -static|Linux x86_64|=+   COMMENT
  2021    12     7   -0.000000000000D+00                    CORR TO SYSTEM TIME
                                                            END OF HEADER
 5 21 12  8 19 45  0.0 8.385162800550D-05 9.094947017729D-13 7.020000000000D+04
   -1.451345068359D+04 1.127090454102D+00-9.313225746155D-10 0.000000000000D+00
    1.168189306641D+04-2.107777595520D+00 3.725290298462D-09 1.000000000000D+00
    1.744185986328D+04 2.347352981567D+00 0.000000000000D+00 0.000000000000D+00
 7 21 12  8 19 45  0.0-3.937259316444D-05 0.000000000000D+00 7.020000000000D+04
   -5.150097656250D+02-8.383464813232D-01-9.313225746155D-10 0.000000000000D+00
    1.956106054688D+04 2.085899353027D+00 0.000000000000D+00 5.000000000000D+00
   -1.636378320312D+04 2.510171890259D+00 2.793967723846D-09 0.000000000000D+00
 9 21 12  8 19 45  0.0 2.771802246571D-05 1.818989403546D-12 7.020000000000D+04
   -8.828979492188D+02-1.589487075806D+00-0.000000000000D+00 0.000000000000D+00
    1.560258544922D+04-2.256441116333D+00-0.000000000000D+00-2.000000000000D+00
   -2.012205908203D+04-1.684805870056D+00 2.793967723846D-09 0.000000000000D+00
10 21 12  8 19 45  0.0-7.780082523823D-05 0.000000000000D+00 7.020000000000D+04
    1.104504443359D+04-5.152397155762D-01-9.313225746155D-10 0.000000000000D+00
    2.162847412109D+04-9.650230407715D-01 0.000000000000D+00-7.000000000000D+00
   -7.938134277344D+03-3.342499732971D+00 2.793967723846D-09 0.000000000000D+00
 6 21 12  8 20 15  0.0-2.028979361057D-05-1.818989403546D-12 7.200000000000D+04
   -9.394724121094D+03 3.490934371948D-01-9.313225746155D-10 0.000000000000D+00
    2.304891210938D+04-7.044858932495D-01 3.725290298462D-09-4.000000000000D+00
    5.634634277344D+03 3.450917243958D+00 1.862645149231D-09 0.000000000000D+00
 5 21 12  8 20 15  0.0 8.385349065065D-05 9.094947017729D-13 7.200000000000D+04
   -1.261481152344D+04 9.455890655518D-01-0.000000000000D+00 0.000000000000D+00
    7.319562011719D+03-2.706833839417D+00 3.725290298462D-09 1.000000000000D+00
    2.093930175781D+04 1.513458251953D+00-0.000000000000D+00 0.000000000000D+00
 7 21 12  8 20 15  0.0-3.937259316444D-05 0.000000000000D+00 7.200000000000D+04
   -1.542584472656D+03-3.224802017212D-01-9.313225746155D-10 0.000000000000D+00
    2.284315039062D+04 1.519973754883D+00 1.862645149231D-09 5.000000000000D+00
   -1.127147753906D+04 3.111109733582D+00 2.793967723846D-09 0.000000000000D+00
 9 21 12  8 20 15  0.0 2.772174775600D-05 1.818989403546D-12 7.200000000000D+04
   -4.221887695312D+03-2.100412368774D+00-0.000000000000D+00 0.000000000000D+00
    1.152600830078D+04-2.227560997009D+00-0.000000000000D+00-2.000000000000D+00
   -2.233509765625D+04-7.582693099976D-01 2.793967723846D-09 0.000000000000D+00
10 21 12  8 20 15  0.0-7.780082523823D-05 0.000000000000D+00 7.200000000000D+04
    9.527578613281D+03-1.182915687561D+00-9.313225746155D-10 0.000000000000D+00
    1.943297607422D+04-1.432896614075D+00 0.000000000000D+00-7.000000000000D+00
   -1.357180126953D+04-2.876645088196D+00 2.793967723846D-09 0.000000000000D+00
20 21 12  8 20 15  0.0-6.082467734814D-05-0.000000000000D+00 7.224000000000D+04
   -1.805372851562D+04-1.979687690735D+00-0.000000000000D+00 0.000000000000D+00
    1.008477441406D+04 5.686082839966D-01 2.793967723846D-09 2.000000000000D+00
    1.497346289062D+04-2.768928527832D+00 0.000000000000D+00 0.000000000000D+00
 8 21 12  8 20 15  0.0-6.244331598282D-05-0.000000000000D+00 7.320000000000D+04
    7.457789062500D+03-8.457660675049D-01-0.000000000000D+00 0.000000000000D+00
    1.083176660156D+04 2.877794265747D+00-9.313225746155D-10 6.000000000000D+00
   -2.181416162109D+04 1.134443283081D+00 2.793967723846D-09 0.000000000000D+00
 8 21 12  8 20 45  0.0-6.244517862797D-05-0.000000000000D+00 7.380000000000D+04
    6.384131347656D+03-3.540182113647D-01-9.313225746155D-10 0.000000000000D+00
    1.579087695312D+04 2.582839965820D+00 0.000000000000D+00 6.000000000000D+00
   -1.895214550781D+04 2.024696350098D+00 2.793967723846D-09 0.000000000000D+00
 6 21 12  8 20 45  0.0-2.029351890087D-05-1.818989403546D-12 7.380000000000D+04
   -8.722927734375D+03 3.566236495972D-01-0.000000000000D+00 0.000000000000D+00
    2.101245263672D+04-1.547235488892D+00 3.725290298462D-09-4.000000000000D+00
    1.154850390625D+04 3.077384948730D+00 9.313225746155D-10 0.000000000000D+00
 7 21 12  8 20 45  0.0-3.937166184187D-05 0.000000000000D+00 7.380000000000D+04
   -1.770895996094D+03 3.617191314697D-02-0.000000000000D+00 0.000000000000D+00
    2.490849658203D+04 7.477235794067D-01 1.862645149231D-09 5.000000000000D+00
   -5.308648925781D+03 3.471244812012D+00 2.793967723846D-09 0.000000000000D+00
 9 21 12  8 20 45  0.0 2.772454172373D-05 1.818989403546D-12 7.380000000000D+04
   -8.343107421875D+03-2.443368911743D+00 0.000000000000D+00 0.000000000000D+00
    7.733386718750D+03-1.949959754944D+00-9.313225746155D-10-2.000000000000D+00
   -2.281711474609D+04 2.259855270386D-01 2.793967723846D-09 0.000000000000D+00
10 21 12  8 20 45  0.0-7.780082523823D-05 0.000000000000D+00 7.380000000000D+04
    6.775897949219D+03-1.868085861206D+00-0.000000000000D+00 0.000000000000D+00
    1.662968310547D+04-1.636213302612D+00-0.000000000000D+00-7.000000000000D+00
   -1.816066552734D+04-2.189043998718D+00 2.793967723846D-09 0.000000000000D+00
20 21 12  8 20 45  0.0-6.082560867071D-05-0.000000000000D+00 7.380000000000D+04
   -2.089606494141D+04-1.159984588623D+00 0.000000000000D+00 0.000000000000D+00
    1.119840917969D+04 6.265392303467D-01 2.793967723846D-09 2.000000000000D+00
    9.476301269531D+03-3.299480438232D+00 0.000000000000D+00 0.000000000000D+00
21 21 12  8 20 45  0.0-2.606920897961D-04-2.728484105319D-12 7.506000000000D+04
   -3.398931152344D+03-2.858129501343D+00-0.000000000000D+00 0.000000000000D+00
    1.188109277344D+04 1.091965675354D+00 3.725290298462D-09 4.000000000000D+00
    2.231545800781D+04-1.019692420959D+00-0.000000000000D+00 0.000000000000D+00
 8 21 12  8 21 15  0.0-6.244610995054D-05-0.000000000000D+00 7.560000000000D+04
    6.127618652344D+03 4.553222656250D-02-0.000000000000D+00 0.000000000000D+00
    1.996469482422D+04 2.013828277588D+00 9.313225746155D-10 6.000000000000D+00
   -1.462027343750D+04 2.757009506226D+00 2.793967723846D-09 0.000000000000D+00
 6 21 12  8 21 15  0.0-2.029817551374D-05-1.818989403546D-12 7.560000000000D+04
   -8.248457031250D+03 1.362705230713D-01 0.000000000000D+00 0.000000000000D+00
    1.755198779297D+04-2.268694877625D+00 3.725290298462D-09-4.000000000000D+00
    1.657000195312D+04 2.465780258179D+00 0.000000000000D+00 0.000000000000D+00
 7 21 12  8 21 15  0.0-3.937073051929D-05 0.000000000000D+00 7.560000000000D+04
   -1.545588867188D+03 1.741876602173D-01-0.000000000000D+00 0.000000000000D+00
    2.546880175781D+04-1.341819763184D-01 2.793967723846D-09 5.000000000000D+00
    1.063778808594D+03 3.563369750977D+00 1.862645149231D-09 0.000000000000D+00
10 21 12  8 21 15  0.0-7.780082523823D-05-0.000000000000D+00 7.560000000000D+04
    2.859087402344D+03-2.459257125854D+00-0.000000000000D+00 0.000000000000D+00
    1.370348583984D+04-1.572896957397D+00-0.000000000000D+00-7.000000000000D+00
   -2.135053906250D+04-1.332182884216D+00 2.793967723846D-09 0.000000000000D+00
20 21 12  8 21 15  0.0-6.082653999329D-05-0.000000000000D+00 7.560000000000D+04
   -2.219891894531D+04-2.892065048218D-01 0.000000000000D+00 0.000000000000D+00
    1.218270019531D+04 4.233579635620D-01 1.862645149231D-09 2.000000000000D+00
    3.248357910156D+03-3.575645446777D+00 9.313225746155D-10 0.000000000000D+00
21 21 12  8 21 15  0.0-2.606976777315D-04-2.728484105319D-12 7.560000000000D+04
   -8.108846191406D+03-2.337594032288D+00 0.000000000000D+00 0.000000000000D+00
    1.410430468750D+04 1.342865943909D+00 3.725290298462D-09 4.000000000000D+00
    1.964108642578D+04-1.932631492615D+00-0.000000000000D+00 0.000000000000D+00
 8 21 12  8 21 45  0.0-6.244704127312D-05-0.000000000000D+00 7.740000000000D+04
    6.439685058594D+03 2.656297683716D-01-0.000000000000D+00 0.000000000000D+00
    2.291822509766D+04 1.241806030273D+00 1.862645149231D-09 6.000000000000D+00
   -9.155877929688D+03 3.274950027466D+00 2.793967723846D-09 0.000000000000D+00
 6 21 12  8 21 45  0.0-2.030190080404D-05-1.818989403546D-12 7.740000000000D+04
   -8.334875976562D+03-2.538824081421D-01 9.313225746155D-10 0.000000000000D+00
    1.297641796875D+04-2.772485733032D+00 3.725290298462D-09-4.000000000000D+00
    2.031037548828D+04 1.663117408752D+00-0.000000000000D+00 0.000000000000D+00
 7 21 12  8 21 45  0.0-3.936886787415D-05 0.000000000000D+00 7.740000000000D+04
   -1.290416503906D+03 6.939888000488D-02 0.000000000000D+00 0.000000000000D+00
    2.442824560547D+04-1.011434555054D+00 3.725290298462D-09 5.000000000000D+00
    7.354305664062D+03 3.380909919739D+00 1.862645149231D-09 0.000000000000D+00
10 21 12  8 21 45  0.0-7.780082523823D-05-0.000000000000D+00 7.740000000000D+04
   -1.959976562500D+03-2.855607986450D+00-0.000000000000D+00 0.000000000000D+00
    1.110284619141D+04-1.284837722778D+00-9.313225746155D-10-7.000000000000D+00
   -2.289413378906D+04-3.716163635254D-01 2.793967723846D-09 0.000000000000D+00
20 21 12  8 21 45  0.0-6.082747131586D-05-0.000000000000D+00 7.740000000000D+04
   -2.197853466797D+04 5.131645202637D-01 9.313225746155D-10 0.000000000000D+00
    1.257360156250D+04-2.646923065186D-02 9.313225746155D-10 2.000000000000D+00
   -3.230127441406D+03-3.576029777527D+00 9.313225746155D-10 0.000000000000D+00
21 21 12  8 21 45  0.0-2.607032656670D-04-2.728484105319D-12 7.740000000000D+04
   -1.170803515625D+04-1.640844345093D+00 9.313225746155D-10 0.000000000000D+00
    1.656906640625D+04 1.351241111755D+00 2.793967723846D-09 4.000000000000D+00
    1.544758935547D+04-2.696611404419D+00 0.000000000000D+00 0.000000000000D+00
